{
  "type": "FeatureCollection",
  "features": [
    {
      "type": "Feature",
      "properties": {
        "norad_id": 66802,
        "name": "STARLINK-35604",
        "group": "last-30-days",
        "lat": -28.95216624678887,
        "lon": 95.8909069304154,
        "alt_km": 321.0866275865483,
        "timestamp": "2025-12-14T18:52:54.243368+00:00",
        "meta_object_name": "STARLINK-35604",
        "meta_object_id": "2025-278M",
        "meta_epoch": "2025-12-13T16:13:01.222176",
        "meta_mean_motion": 15.84718976,
        "meta_eccentricity": 0.00033108,
        "meta_inclination": 42.9961,
        "meta_ra_of_asc_node": 246.3028,
        "meta_arg_of_pericenter": 302.505,
        "meta_mean_anomaly": 57.5503,
        "meta_ephemeris_type": 0,
        "meta_classification_type": "U",
        "meta_norad_cat_id": 66802,
        "meta_element_set_no": 999,
        "meta_rev_at_epoch": 198,
        "meta_bstar": -0.0010144377,
        "meta_mean_motion_dot": -0.00237067,
        "meta_mean_motion_ddot": 0,
        "tle_line1": "1 66802U 25278M   25347.67570859 -.00237067  00000+0 -10144-2 0  9992",
        "tle_line2": "2 66802  42.9961 246.3028 0003310 302.5050  57.5503 15.84718976  1981"
      },
      "geometry": {
        "type": "Point",
        "coordinates": [
          95.8909069304154,
          -28.95216624678887
        ]
      }
    },
    {
      "type": "Feature",
      "properties": {
        "norad_id": 66803,
        "name": "STARLINK-35565",
        "group": "last-30-days",
        "lat": -25.72364162468931,
        "lon": 90.6251495409356,
        "alt_km": 334.94322452909637,
        "timestamp": "2025-12-14T18:52:54.243380+00:00",
        "meta_object_name": "STARLINK-35565",
        "meta_object_id": "2025-278N",
        "meta_epoch": "2025-12-12T19:02:38.302368",
        "meta_mean_motion": 15.88166969,
        "meta_eccentricity": 0.00047766,
        "meta_inclination": 42.9974,
        "meta_ra_of_asc_node": 251.7329,
        "meta_arg_of_pericenter": 311.8639,
        "meta_mean_anomaly": 48.1827,
        "meta_ephemeris_type": 0,
        "meta_classification_type": "U",
        "meta_norad_cat_id": 66803,
        "meta_element_set_no": 999,
        "meta_rev_at_epoch": 184,
        "meta_bstar": -0.0087251966,
        "meta_mean_motion_dot": -0.02134789,
        "meta_mean_motion_ddot": 0,
        "tle_line1": "1 66803U 25278N   25346.79349887 -.02134789  00000+0 -87252-2 0  9993",
        "tle_line2": "2 66803  42.9974 251.7329 0004776 311.8639  48.1827 15.88166969  1846"
      },
      "geometry": {
        "type": "Point",
        "coordinates": [
          90.6251495409356,
          -25.72364162468931
        ]
      }
    },
    {
      "type": "Feature",
      "properties": {
        "norad_id": 66804,
        "name": "STARLINK-36038",
        "group": "last-30-days",
        "lat": -31.10570255421923,
        "lon": 99.81567932341838,
        "alt_km": 324.4222320151175,
        "timestamp": "2025-12-14T18:52:54.243390+00:00",
        "meta_object_name": "STARLINK-36038",
        "meta_object_id": "2025-278P",
        "meta_epoch": "2025-12-13T20:43:32.790144",
        "meta_mean_motion": 15.84318528,
        "meta_eccentricity": 0.00029834,
        "meta_inclination": 42.9971,
        "meta_ra_of_asc_node": 245.1292,
        "meta_arg_of_pericenter": 285.5048,
        "meta_mean_anomaly": 74.5495,
        "meta_ephemeris_type": 0,
        "meta_classification_type": "U",
        "meta_norad_cat_id": 66804,
        "meta_element_set_no": 999,
        "meta_rev_at_epoch": 201,
        "meta_bstar": -0.0037120429,
        "meta_mean_motion_dot": -0.00797418,
        "meta_mean_motion_ddot": 0,
        "tle_line1": "1 66804U 25278P   25347.86357396 -.00797418  00000+0 -37120-2 0  9998",
        "tle_line2": "2 66804  42.9971 245.1292 0002983 285.5048  74.5495 15.84318528  2019"
      },
      "geometry": {
        "type": "Point",
        "coordinates": [
          99.81567932341838,
          -31.10570255421923
        ]
      }
    },
    {
      "type": "Feature",
      "properties": {
        "norad_id": 66805,
        "name": "STARLINK-36049",
        "group": "last-30-days",
        "lat": -32.517482186045264,
        "lon": 102.62311805273892,
        "alt_km": 327.1592622287808,
        "timestamp": "2025-12-14T18:52:54.243402+00:00",
        "meta_object_name": "STARLINK-36049",
        "meta_object_id": "2025-278Q",
        "meta_epoch": "2025-12-13T17:40:45.956928",
        "meta_mean_motion": 15.84858104,
        "meta_eccentricity": 0.0004516,
        "meta_inclination": 42.9969,
        "meta_ra_of_asc_node": 245.8976,
        "meta_arg_of_pericenter": 278.037,
        "meta_mean_anomaly": 81.999,
        "meta_ephemeris_type": 0,
        "meta_classification_type": "U",
        "meta_norad_cat_id": 66805,
        "meta_element_set_no": 999,
        "meta_rev_at_epoch": 199,
        "meta_bstar": -0.0073790961,
        "meta_mean_motion_dot": -0.01565906,
        "meta_mean_motion_ddot": 0,
        "tle_line1": "1 66805U 25278Q   25347.73664302 -.01565906  00000+0 -73791-2 0  9993",
        "tle_line2": "2 66805  42.9969 245.8976 0004516 278.0370  81.9990 15.84858104  1999"
      },
      "geometry": {
        "type": "Point",
        "coordinates": [
          102.62311805273892,
          -32.517482186045264
        ]
      }
    },
    {
      "type": "Feature",
      "properties": {
        "norad_id": 66806,
        "name": "STARLINK-36069",
        "group": "last-30-days",
        "lat": -22.76660445256099,
        "lon": -147.52184515555697,
        "alt_km": 241.2984224541542,
        "timestamp": "2025-12-14T18:52:54.243412+00:00",
        "meta_object_name": "STARLINK-36069",
        "meta_object_id": "2025-278R",
        "meta_epoch": "2025-12-12T23:33:28.013472",
        "meta_mean_motion": 15.89964578,
        "meta_eccentricity": 0.00095169,
        "meta_inclination": 42.9955,
        "meta_ra_of_asc_node": 250.5622,
        "meta_arg_of_pericenter": 265.6965,
        "meta_mean_anomaly": 94.2822,
        "meta_ephemeris_type": 0,
        "meta_classification_type": "U",
        "meta_norad_cat_id": 66806,
        "meta_element_set_no": 999,
        "meta_rev_at_epoch": 187,
        "meta_bstar": 0.012088276,
        "meta_mean_motion_dot": 0.03313883,
        "meta_mean_motion_ddot": 0.010113462,
        "tle_line1": "1 66806U 25278R   25346.98157423  .03313883  10113-1  12088-1 0  9995",
        "tle_line2": "2 66806  42.9955 250.5622 0009516 265.6965  94.2822 15.89964578  1879"
      },
      "geometry": {
        "type": "Point",
        "coordinates": [
          -147.52184515555697,
          -22.76660445256099
        ]
      }
    },
    {
      "type": "Feature",
      "properties": {
        "norad_id": 66807,
        "name": "STARLINK-36000",
        "group": "last-30-days",
        "lat": -36.83406851677662,
        "lon": 112.9305678768352,
        "alt_km": 321.1260045818126,
        "timestamp": "2025-12-14T18:52:54.243425+00:00",
        "meta_object_name": "STARLINK-36000",
        "meta_object_id": "2025-278S",
        "meta_epoch": "2025-12-13T16:08:48.606720",
        "meta_mean_motion": 15.8470545,
        "meta_eccentricity": 0.00031871,
        "meta_inclination": 42.9966,
        "meta_ra_of_asc_node": 246.2789,
        "meta_arg_of_pericenter": 295.5359,
        "meta_mean_anomaly": 64.5184,
        "meta_ephemeris_type": 0,
        "meta_classification_type": "U",
        "meta_norad_cat_id": 66807,
        "meta_element_set_no": 999,
        "meta_rev_at_epoch": 198,
        "meta_bstar": -0.001295899,
        "meta_mean_motion_dot": -0.00300339,
        "meta_mean_motion_ddot": 0,
        "tle_line1": "1 66807U 25278S   25347.67278480 -.00300339  00000+0 -12959-2 0  9991",
        "tle_line2": "2 66807  42.9966 246.2789 0003187 295.5359  64.5184 15.84705450  1985"
      },
      "geometry": {
        "type": "Point",
        "coordinates": [
          112.9305678768352,
          -36.83406851677662
        ]
      }
    },
    {
      "type": "Feature",
      "properties": {
        "norad_id": 66808,
        "name": "STARLINK-36071",
        "group": "last-30-days",
        "lat": -35.19232051096388,
        "lon": 108.62542169988393,
        "alt_km": 321.44799826903727,
        "timestamp": "2025-12-14T18:52:54.243435+00:00",
        "meta_object_name": "STARLINK-36071",
        "meta_object_id": "2025-278T",
        "meta_epoch": "2025-12-13T20:41:49.126560",
        "meta_mean_motion": 15.84386872,
        "meta_eccentricity": 0.00025134,
        "meta_inclination": 42.9971,
        "meta_ra_of_asc_node": 245.119,
        "meta_arg_of_pericenter": 246.4306,
        "meta_mean_anomaly": 113.6303,
        "meta_ephemeris_type": 0,
        "meta_classification_type": "U",
        "meta_norad_cat_id": 66808,
        "meta_element_set_no": 999,
        "meta_rev_at_epoch": 201,
        "meta_bstar": -0.0017763932,
        "meta_mean_motion_dot": -0.00400597,
        "meta_mean_motion_ddot": 0,
        "tle_line1": "1 66808U 25278T   25347.86237415 -.00400597  00000+0 -17764-2 0  9992",
        "tle_line2": "2 66808  42.9971 245.1190 0002513 246.4306 113.6303 15.84386872  2012"
      },
      "geometry": {
        "type": "Point",
        "coordinates": [
          108.62542169988393,
          -35.19232051096388
        ]
      }
    }
  ]
}